STARLINK-37106          
1 68219U 26053N   26102.83335647 -.01126831  00000+0 -17556-1 0  9990
2 68219  97.2848 338.8141 0001816  93.3218 323.3093 15.56588255  5509
STARLINK-37030          
1 68220U 26053P   26102.83335647 -.00007174  00000+0 -13034-3 0  9998
2 68220  97.2966 338.7111 0001875  89.1265  97.9087 15.49191679  5507
STARLINK-37012          
1 68221U 26053Q   26102.83335647 -.01972028  00000+0 -32611-1 0  9999
2 68221  97.2947 338.8003 0001961  96.3468 299.4563 15.55739478  5509
STARLINK-37110          
1 68222U 26053R   26102.83335647 -.01014859  00000+0 -15210-1 0  9995
2 68222  97.2853 338.8236 0001650  82.8979   2.5182 15.57356273  5506
STARLINK-37025          
1 68223U 26053S   26102.83335647 -.01123052  00000+0 -18104-1 0  9997
2 68223  97.2855 338.8127 0001893  93.7535 320.6697 15.55660791  5502
STARLINK-36977          
1 68224U 26053T   26102.91843667  .01651877  18899-2  22732-2 0  9993
2 68224  97.2801 339.1251 0001161  58.1332 302.0063 16.06628717  5458
STARLINK-36960          
1 68225U 26053U   26102.83335647 -.01004105  00000+0 -14729-1 0  9995
2 68225  97.2858 338.8372 0001738  85.3987  31.5849 15.58329085  5480
STARLINK-37038          
1 68226U 26053V   26102.83335647 -.01067101  00000+0 -16499-1 0  9997
2 68226  97.2855 338.8290 0001908  88.8799   3.4647 15.56646693  5484
STARLINK-37083          
1 68227U 26053W   26102.83335647 -.00946074  00000+0 -13724-1 0  9990
2 68227  97.2854 338.8401 0001702  79.3539  44.6733 15.58458660  5500
STARLINK-37050          
1 68228U 26053X   26102.83335647 -.01055325  00000+0 -15791-1 0  9998
2 68228  97.2859 338.8358 0001739  90.0297  23.5455 15.57496459  5489
STARLINK-37081          
1 68229U 26053Y   26102.63142639  .00132886  00000+0  87717-3 0  9998
2 68229  97.2839 338.5915 0001206  75.3203 284.8196 15.75212147  5413
STARLINK-37100          
1 68230U 26053Z   26102.83335647 -.01120269  00000+0 -17392-1 0  9990
2 68230  97.2857 338.8328 0001751  97.2382   3.7441 15.56667386  5501
STARLINK-37104          
1 68231U 26053AA  26102.83335647 -.01097344  00000+0 -17025-1 0  9991
2 68231  97.2855 338.8344 0001687  92.8825  11.8183 15.56630077  5509
STARLINK-37027          
1 68232U 26054A   26102.50149720  .00209414  00000+0  13352-2 0  9992
2 68232  53.1596 143.8091 0001431 111.2957 248.8216 15.75264413  4118
STARLINK-37132          
1 68233U 26054B   26101.62877644  .00242096  00000+0  11980-2 0  9996
2 68233  53.1568 147.5905 0004290  30.1594 329.9675 15.80829857  3984
STARLINK-37101          
1 68234U 26054C   26102.80998328  .00265064  00000+0  16742-2 0  9992
2 68234  53.1574 142.1728 0002944  75.2128 284.9218 15.75312621  4167
