[{"OBJECT_NAME":"STARLINK-37106","OBJECT_ID":"2026-053N","EPOCH":"2026-04-12T20:00:01.999008","MEAN_MOTION":15.56588255,"ECCENTRICITY":0.0001816,"INCLINATION":97.2848,"RA_OF_ASC_NODE":338.8141,"ARG_OF_PERICENTER":93.3218,"MEAN_ANOMALY":323.3093,"EPHEMERIS_TYPE":0,"CLASSIFICATION_TYPE":"U","NORAD_CAT_ID":68219,"ELEMENT_SET_NO":999,"REV_AT_EPOCH":550,"BSTAR":-0.017556,"MEAN_MOTION_DOT":-0.01126831,"MEAN_MOTION_DDOT":0},{"OBJECT_NAME":"STARLINK-37030","OBJECT_ID":"2026-053P","EPOCH":"2026-04-12T20:00:01.999008","MEAN_MOTION":15.49191679,"ECCENTRICITY":0.0001875,"INCLINATION":97.2966,"RA_OF_ASC_NODE":338.7111,"ARG_OF_PERICENTER":89.1265,"MEAN_ANOMALY":97.9087,"EPHEMERIS_TYPE":0,"CLASSIFICATION_TYPE":"U","NORAD_CAT_ID":68220,"ELEMENT_SET_NO":999,"REV_AT_EPOCH":550,"BSTAR":-0.00013034,"MEAN_MOTION_DOT":-7.174e-5,"MEAN_MOTION_DDOT":0},{"OBJECT_NAME":"STARLINK-37012","OBJECT_ID":"2026-053Q","EPOCH":"2026-04-12T20:00:01.999008","MEAN_MOTION":15.55739478,"ECCENTRICITY":0.0001961,"INCLINATION":97.2947,"RA_OF_ASC_NODE":338.8003,"ARG_OF_PERICENTER":96.3468,"MEAN_ANOMALY":299.4563,"EPHEMERIS_TYPE":0,"CLASSIFICATION_TYPE":"U","NORAD_CAT_ID":68221,"ELEMENT_SET_NO":999,"REV_AT_EPOCH":550,"BSTAR":-0.032611,"MEAN_MOTION_DOT":-0.01972028,"MEAN_MOTION_DDOT":0},{"OBJECT_NAME":"STARLINK-37110","OBJECT_ID":"2026-053R","EPOCH":"2026-04-12T20:00:01.999008","MEAN_MOTION":15.57356273,"ECCENTRICITY":0.000165,"INCLINATION":97.2853,"RA_OF_ASC_NODE":338.8236,"ARG_OF_PERICENTER":82.8979,"MEAN_ANOMALY":2.5182,"EPHEMERIS_TYPE":0,"CLASSIFICATION_TYPE":"U","NORAD_CAT_ID":68222,"ELEMENT_SET_NO":999,"REV_AT_EPOCH":550,"BSTAR":-0.01521,"MEAN_MOTION_DOT":-0.01014859,"MEAN_MOTION_DDOT":0},{"OBJECT_NAME":"STARLINK-37025","OBJECT_ID":"2026-053S","EPOCH":"2026-04-12T20:00:01.999008","MEAN_MOTION":15.55660791,"ECCENTRICITY":0.0001893,"INCLINATION":97.2855,"RA_OF_ASC_NODE":338.8127,"ARG_OF_PERICENTER":93.7535,"MEAN_ANOMALY":320.6697,"EPHEMERIS_TYPE":0,"CLASSIFICATION_TYPE":"U","NORAD_CAT_ID":68223,"ELEMENT_SET_NO":999,"REV_AT_EPOCH":550,"BSTAR":-0.018104,"MEAN_MOTION_DOT":-0.01123052,"MEAN_MOTION_DDOT":0},{"OBJECT_NAME":"STARLINK-36977","OBJECT_ID":"2026-053T","EPOCH":"2026-04-12T22:02:32.928288","MEAN_MOTION":16.06628717,"ECCENTRICITY":0.0001161,"INCLINATION":97.2801,"RA_OF_ASC_NODE":339.1251,"ARG_OF_PERICENTER":58.1332,"MEAN_ANOMALY":302.0063,"EPHEMERIS_TYPE":0,"CLASSIFICATION_TYPE":"U","NORAD_CAT_ID":68224,"ELEMENT_SET_NO":999,"REV_AT_EPOCH":545,"BSTAR":0.0022732,"MEAN_MOTION_DOT":0.01651877,"MEAN_MOTION_DDOT":0.0018899},{"OBJECT_NAME":"STARLINK-36960","OBJECT_ID":"2026-053U","EPOCH":"2026-04-12T20:00:01.999008","MEAN_MOTION":15.58329085,"ECCENTRICITY":0.0001738,"INCLINATION":97.2858,"RA_OF_ASC_NODE":338.8372,"ARG_OF_PERICENTER":85.3987,"MEAN_ANOMALY":31.5849,"EPHEMERIS_TYPE":0,"CLASSIFICATION_TYPE":"U","NORAD_CAT_ID":68225,"ELEMENT_SET_NO":999,"REV_AT_EPOCH":548,"BSTAR":-0.014729,"MEAN_MOTION_DOT":-0.01004105,"MEAN_MOTION_DDOT":0},{"OBJECT_NAME":"STARLINK-37038","OBJECT_ID":"2026-053V","EPOCH":"2026-04-12T20:00:01.999008","MEAN_MOTION":15.56646693,"ECCENTRICITY":0.0001908,"INCLINATION":97.2855,"RA_OF_ASC_NODE":338.829,"ARG_OF_PERICENTER":88.8799,"MEAN_ANOMALY":3.4647,"EPHEMERIS_TYPE":0,"CLASSIFICATION_TYPE":"U","NORAD_CAT_ID":68226,"ELEMENT_SET_NO":999,"REV_AT_EPOCH":548,"BSTAR":-0.016499,"MEAN_MOTION_DOT":-0.01067101,"MEAN_MOTION_DDOT":0},{"OBJECT_NAME":"STARLINK-37083","OBJECT_ID":"2026-053W","EPOCH":"2026-04-12T20:00:01.999008","MEAN_MOTION":15.5845866,"ECCENTRICITY":0.0001702,"INCLINATION":97.2854,"RA_OF_ASC_NODE":338.8401,"ARG_OF_PERICENTER":79.3539,"MEAN_ANOMALY":44.6733,"EPHEMERIS_TYPE":0,"CLASSIFICATION_TYPE":"U","NORAD_CAT_ID":68227,"ELEMENT_SET_NO":999,"REV_AT_EPOCH":550,"BSTAR":-0.013724,"MEAN_MOTION_DOT":-0.00946074,"MEAN_MOTION_DDOT":0},{"OBJECT_NAME":"STARLINK-37050","OBJECT_ID":"2026-053X","EPOCH":"2026-04-12T20:00:01.999008","MEAN_MOTION":15.57496459,"ECCENTRICITY":0.0001739,"INCLINATION":97.2859,"RA_OF_ASC_NODE":338.8358,"ARG_OF_PERICENTER":90.0297,"MEAN_ANOMALY":23.5455,"EPHEMERIS_TYPE":0,"CLASSIFICATION_TYPE":"U","NORAD_CAT_ID":68228,"ELEMENT_SET_NO":999,"REV_AT_EPOCH":548,"BSTAR":-0.015791,"MEAN_MOTION_DOT":-0.01055325,"MEAN_MOTION_DDOT":0},{"OBJECT_NAME":"STARLINK-37081","OBJECT_ID":"2026-053Y","EPOCH":"2026-04-12T15:09:15.240096","MEAN_MOTION":15.75212147,"ECCENTRICITY":0.0001206,"INCLINATION":97.2839,"RA_OF_ASC_NODE":338.5915,"ARG_OF_PERICENTER":75.3203,"MEAN_ANOMALY":284.8196,"EPHEMERIS_TYPE":0,"CLASSIFICATION_TYPE":"U","NORAD_CAT_ID":68229,"ELEMENT_SET_NO":999,"REV_AT_EPOCH":541,"BSTAR":0.00087717,"MEAN_MOTION_DOT":0.00132886,"MEAN_MOTION_DDOT":0},{"OBJECT_NAME":"STARLINK-37100","OBJECT_ID":"2026-053Z","EPOCH":"2026-04-12T20:00:01.999008","MEAN_MOTION":15.56667386,"ECCENTRICITY":0.0001751,"INCLINATION":97.2857,"RA_OF_ASC_NODE":338.8328,"ARG_OF_PERICENTER":97.2382,"MEAN_ANOMALY":3.7441,"EPHEMERIS_TYPE":0,"CLASSIFICATION_TYPE":"U","NORAD_CAT_ID":68230,"ELEMENT_SET_NO":999,"REV_AT_EPOCH":550,"BSTAR":-0.017392,"MEAN_MOTION_DOT":-0.01120269,"MEAN_MOTION_DDOT":0},{"OBJECT_NAME":"STARLINK-37104","OBJECT_ID":"2026-053AA","EPOCH":"2026-04-12T20:00:01.999008","MEAN_MOTION":15.56630077,"ECCENTRICITY":0.0001687,"INCLINATION":97.2855,"RA_OF_ASC_NODE":338.8344,"ARG_OF_PERICENTER":92.8825,"MEAN_ANOMALY":11.8183,"EPHEMERIS_TYPE":0,"CLASSIFICATION_TYPE":"U","NORAD_CAT_ID":68231,"ELEMENT_SET_NO":999,"REV_AT_EPOCH":550,"BSTAR":-0.017025,"MEAN_MOTION_DOT":-0.01097344,"MEAN_MOTION_DDOT":0},{"OBJECT_NAME":"STARLINK-37027","OBJECT_ID":"2026-054A","EPOCH":"2026-04-12T12:02:09.358080","MEAN_MOTION":15.75264413,"ECCENTRICITY":0.0001431,"INCLINATION":53.1596,"RA_OF_ASC_NODE":143.8091,"ARG_OF_PERICENTER":111.2957,"MEAN_ANOMALY":248.8216,"EPHEMERIS_TYPE":0,"CLASSIFICATION_TYPE":"U","NORAD_CAT_ID":68232,"ELEMENT_SET_NO":999,"REV_AT_EPOCH":411,"BSTAR":0.0013352,"MEAN_MOTION_DOT":0.00209414,"MEAN_MOTION_DDOT":0},{"OBJECT_NAME":"STARLINK-37132","OBJECT_ID":"2026-054B","EPOCH":"2026-04-11T15:05:26.284416","MEAN_MOTION":15.80829857,"ECCENTRICITY":0.00042903,"INCLINATION":53.1568,"RA_OF_ASC_NODE":147.5905,"ARG_OF_PERICENTER":30.1594,"MEAN_ANOMALY":329.9675,"EPHEMERIS_TYPE":0,"CLASSIFICATION_TYPE":"U","NORAD_CAT_ID":68233,"ELEMENT_SET_NO":999,"REV_AT_EPOCH":398,"BSTAR":0.0011980251,"MEAN_MOTION_DOT":0.00242096,"MEAN_MOTION_DDOT":0},{"OBJECT_NAME":"STARLINK-37101","OBJECT_ID":"2026-054C","EPOCH":"2026-04-12T19:26:22.555392","MEAN_MOTION":15.75312621,"ECCENTRICITY":0.0002944,"INCLINATION":53.1574,"RA_OF_ASC_NODE":142.1728,"ARG_OF_PERICENTER":75.2128,"MEAN_ANOMALY":284.9218,"EPHEMERIS_TYPE":0,"CLASSIFICATION_TYPE":"U","NORAD_CAT_ID":68234,"ELEMENT_SET_NO":999,"REV_AT_EPOCH":416,"BSTAR":0.0016742,"MEAN_MOTION_DOT":0.00265064,"MEAN_MOTION_DDOT":0}]
